start=new Date('2023-01-03T00:00:00.000Z').valueOf();
sats=[{"BSTAR":"0.00025898000000","TLE_LINE2":"2 47165  53.0535 118.4552 0002000  49.7230 310.3934 15.06400098116935","MEAN_MOTION_DOT":"0.00003578","ECCENTRICITY":"0.00020000","TIME_SYSTEM":"UTC","RCS_SIZE":"LARGE","RA_OF_ASC_NODE":"118.4552","REV_AT_EPOCH":"11693","MEAN_MOTION_DDOT":"0.0000000000000","GP_ID":"222037755","COUNTRY_CODE":"US","PERIAPSIS":"545.828","OBJECT_TYPE":"PAYLOAD","EPHEMERIS_TYPE":"0","INCLINATION":"53.0535","ELEMENT_SET_NO":"999","LAUNCH_DATE":"2020-11-25","SITE":"AFETR","MEAN_MOTION":"15.06400098","CLASSIFICATION_TYPE":"U","EPOCH":"2023-01-02T14:19:35.352480","DECAY_DATE":null,"NORAD_CAT_ID":"47165","PERIOD":"95.592","OBJECT_NAME":"STARLINK-1880","MEAN_ANOMALY":"310.3934","OBJECT_ID":"2020-088AV","CENTER_NAME":"EARTH","FILE":"3729707","MEAN_ELEMENT_THEORY":"SGP4","APOAPSIS":"548.598","SEMIMAJOR_AXIS":"6925.348","REF_FRAME":"TEME","TLE_LINE1":"1 47165U 20088AV  23002.59693695  .00003578  00000-0  25898-3 0  9998","ARG_OF_PERICENTER":"49.7230"},{"REF_FRAME":"TEME","SEMIMAJOR_AXIS":"6753.175","APOAPSIS":"377.202","FILE":"3729708","MEAN_ELEMENT_THEORY":"SGP4","ARG_OF_PERICENTER":"103.8485","TLE_LINE1":"1 47166U 20088AW  23002.59362330  .00076989  00000-0  78689-3 0  9990","PERIOD":"92.050","OBJECT_NAME":"STARLINK-1881","CLASSIFICATION_TYPE":"U","MEAN_MOTION":"15.64374595","EPOCH":"2023-01-02T14:14:49.053120","DECAY_DATE":null,"NORAD_CAT_ID":"47166","CENTER_NAME":"EARTH","MEAN_ANOMALY":"256.2886","OBJECT_ID":"2020-088AW","EPHEMERIS_TYPE":"0","OBJECT_TYPE":"PAYLOAD","INCLINATION":"53.0429","GP_ID":"222037697","PERIAPSIS":"372.878","COUNTRY_CODE":"US","SITE":"AFETR","ELEMENT_SET_NO":"999","LAUNCH_DATE":"2020-11-25","TLE_LINE2":"2 47166  53.0429 322.1174 0003201 103.8485 256.2886 15.64374595119146","ECCENTRICITY":"0.00032010","MEAN_MOTION_DOT":"0.00076989","BSTAR":"0.00078689000000","RA_OF_ASC_NODE":"322.1174","MEAN_MOTION_DDOT":"0.0000000000000","REV_AT_EPOCH":"11914","TIME_SYSTEM":"UTC","RCS_SIZE":"LARGE"},{"RCS_SIZE":"LARGE","TIME_SYSTEM":"UTC","REV_AT_EPOCH":"11670","MEAN_MOTION_DDOT":"0.0000000000000","RA_OF_ASC_NODE":"117.9170","BSTAR":"0.00013609000000","MEAN_MOTION_DOT":"0.00001746","ECCENTRICITY":"0.00018940","TLE_LINE2":"2 47167  53.0535 117.9170 0001894  43.8542 316.2597 15.06405985116703","LAUNCH_DATE":"2020-11-25","ELEMENT_SET_NO":"999","SITE":"AFETR","COUNTRY_CODE":"US","PERIAPSIS":"545.884","GP_ID":"222063813","INCLINATION":"53.0535","OBJECT_TYPE":"PAYLOAD","EPHEMERIS_TYPE":"0","MEAN_ANOMALY":"316.2597","OBJECT_ID":"2020-088AX","CENTER_NAME":"EARTH","NORAD_CAT_ID":"47167","DECAY_DATE":null,"MEAN_MOTION":"15.06405985","EPOCH":"2023-01-02T17:09:25.810848","CLASSIFICATION_TYPE":"U","OBJECT_NAME":"STARLINK-1884","PERIOD":"95.592","TLE_LINE1":"1 47167U 20088AX  23002.71488207  .00001746  00000-0  13609-3 0  9997","ARG_OF_PERICENTER":"43.8542","FILE":"3729873","MEAN_ELEMENT_THEORY":"SGP4","SEMIMAJOR_AXIS":"6925.330","APOAPSIS":"548.507","REF_FRAME":"TEME"},{"ARG_OF_PERICENTER":"55.5231","TLE_LINE1":"1 47170U 20088BA  23002.63379090  .00000227  00000-0  34142-4 0  9990","REF_FRAME":"TEME","SEMIMAJOR_AXIS":"6925.351","APOAPSIS":"548.433","MEAN_ELEMENT_THEORY":"SGP4","FILE":"3729873","CENTER_NAME":"EARTH","MEAN_ANOMALY":"304.5923","OBJECT_ID":"2020-088BA","PERIOD":"95.592","OBJECT_NAME":"STARLINK-1887","MEAN_MOTION":"15.06399150","EPOCH":"2023-01-02T15:12:39.533760","CLASSIFICATION_TYPE":"U","NORAD_CAT_ID":"47170","DECAY_DATE":null,"SITE":"AFETR","ELEMENT_SET_NO":"999","LAUNCH_DATE":"2020-11-25","EPHEMERIS_TYPE":"0","OBJECT_TYPE":"PAYLOAD","INCLINATION":"53.0551","GP_ID":"222064064","PERIAPSIS":"545.999","COUNTRY_CODE":"US","RA_OF_ASC_NODE":"118.2938","MEAN_MOTION_DDOT":"0.0000000000000","REV_AT_EPOCH":"11669","TIME_SYSTEM":"UTC","RCS_SIZE":"LARGE","TLE_LINE2":"2 47170  53.0551 118.2938 0001757  55.5231 304.5923 15.06399150116691","ECCENTRICITY":"0.00017570","MEAN_MOTION_DOT":"0.00000227","BSTAR":"0.00003414200000"},{"RCS_SIZE":"LARGE","TIME_SYSTEM":"UTC","REV_AT_EPOCH":"11711","MEAN_MOTION_DDOT":"0.0000000000000","RA_OF_ASC_NODE":"108.5004","BSTAR":"-0.00005334500000","MEAN_MOTION_DOT":"-0.00001076","ECCENTRICITY":"0.00016710","TLE_LINE2":"2 47171  53.0545 108.5004 0001671  45.3685 314.7440 15.06398379117113","LAUNCH_DATE":"2020-11-25","ELEMENT_SET_NO":"999","SITE":"AFETR","COUNTRY_CODE":"US","PERIAPSIS":"546.061","GP_ID":"222038584","INCLINATION":"53.0545","OBJECT_TYPE":"PAYLOAD","EPHEMERIS_TYPE":"0","MEAN_ANOMALY":"314.7440","OBJECT_ID":"2020-088BB","CENTER_NAME":"EARTH","NORAD_CAT_ID":"47171","DECAY_DATE":null,"CLASSIFICATION_TYPE":"U","EPOCH":"2023-01-02T14:04:59.507040","MEAN_MOTION":"15.06398379","OBJECT_NAME":"STARLINK-1888","PERIOD":"95.592","TLE_LINE1":"1 47171U 20088BB  23002.58679985 -.00001076  00000-0 -53345-4 0  9992","ARG_OF_PERICENTER":"45.3685","MEAN_ELEMENT_THEORY":"SGP4","FILE":"3729726","SEMIMAJOR_AXIS":"6925.354","APOAPSIS":"548.376","REF_FRAME":"TEME"},{"COUNTRY_CODE":"US","PERIAPSIS":"546.367","GP_ID":"222029019","INCLINATION":"53.0517","OBJECT_TYPE":"PAYLOAD","EPHEMERIS_TYPE":"0","LAUNCH_DATE":"2020-11-25","ELEMENT_SET_NO":"999","SITE":"AFETR","BSTAR":"0.00099042000000","MEAN_MOTION_DOT":"0.00014502","ECCENTRICITY":"0.00012130","TLE_LINE2":"2 47173  53.0517 118.5486 0001213  69.1075 291.0044 15.06402190116683","RCS_SIZE":"LARGE","TIME_SYSTEM":"UTC","REV_AT_EPOCH":"11668","MEAN_MOTION_DDOT":"0.0000000000000","RA_OF_ASC_NODE":"118.5486","MEAN_ELEMENT_THEORY":"SGP4","FILE":"3729583","APOAPSIS":"548.047","SEMIMAJOR_AXIS":"6925.342","REF_FRAME":"TEME","TLE_LINE1":"1 47173U 20088BD  23002.57850866  .00014502  00000-0  99042-3 0  9991","ARG_OF_PERICENTER":"69.1075","DECAY_DATE":null,"NORAD_CAT_ID":"47173","MEAN_MOTION":"15.06402190","EPOCH":"2023-01-02T13:53:03.148224","CLASSIFICATION_TYPE":"U","OBJECT_NAME":"STARLINK-1890","PERIOD":"95.592","MEAN_ANOMALY":"291.0044","OBJECT_ID":"2020-088BD","CENTER_NAME":"EARTH"},{"FILE":"3729873","MEAN_ELEMENT_THEORY":"SGP4","APOAPSIS":"548.317","SEMIMAJOR_AXIS":"6925.374","REF_FRAME":"TEME","TLE_LINE1":"1 47174U 20088BE  23002.72225391  .00003661  00000-0  26462-3 0  9998","ARG_OF_PERICENTER":"56.9840","DECAY_DATE":null,"NORAD_CAT_ID":"47174","EPOCH":"2023-01-02T17:20:02.737824","MEAN_MOTION":"15.06391787","CLASSIFICATION_TYPE":"U","OBJECT_NAME":"STARLINK-1891","PERIOD":"95.593","MEAN_ANOMALY":"303.1298","OBJECT_ID":"2020-088BE","CENTER_NAME":"EARTH","COUNTRY_CODE":"US","PERIAPSIS":"546.160","GP_ID":"222063314","INCLINATION":"53.0545","OBJECT_TYPE":"PAYLOAD","EPHEMERIS_TYPE":"0","LAUNCH_DATE":"2020-11-25","ELEMENT_SET_NO":"999","SITE":"AFETR","BSTAR":"0.00026462000000","MEAN_MOTION_DOT":"0.00003661","ECCENTRICITY":"0.00015570","TLE_LINE2":"2 47174  53.0545 117.8921 0001557  56.9840 303.1298 15.06391787116704","RCS_SIZE":"LARGE","TIME_SYSTEM":"UTC","MEAN_MOTION_DDOT":"0.0000000000000","REV_AT_EPOCH":"11670","RA_OF_ASC_NODE":"117.8921"},{"PERIAPSIS":"545.760","COUNTRY_CODE":"US","GP_ID":"222030521","INCLINATION":"53.0548","EPHEMERIS_TYPE":"0","OBJECT_TYPE":"PAYLOAD","LAUNCH_DATE":"2020-11-25","ELEMENT_SET_NO":"999","SITE":"AFETR","BSTAR":"-0.00007253600000","ECCENTRICITY":"0.00020630","MEAN_MOTION_DOT":"-0.00001362","TLE_LINE2":"2 47175  53.0548  98.8046 0002063  42.0141 318.1006 15.06408074116955","RCS_SIZE":"LARGE","TIME_SYSTEM":"UTC","REV_AT_EPOCH":"11695","MEAN_MOTION_DDOT":"0.0000000000000","RA_OF_ASC_NODE":"98.8046","SEMIMAJOR_AXIS":"6925.324","APOAPSIS":"548.618","FILE":"3729583","MEAN_ELEMENT_THEORY":"SGP4","REF_FRAME":"TEME","ARG_OF_PERICENTER":"42.0141","TLE_LINE1":"1 47175U 20088BF  23002.52137587 -.00001362  00000-0 -72536-4 0  9998","NORAD_CAT_ID":"47175","DECAY_DATE":null,"MEAN_MOTION":"15.06408074","CLASSIFICATION_TYPE":"U","EPOCH":"2023-01-02T12:30:46.875168","OBJECT_NAME":"STARLINK-1895","PERIOD":"95.592","MEAN_ANOMALY":"318.1006","OBJECT_ID":"2020-088BF","CENTER_NAME":"EARTH"},{"REF_FRAME":"TEME","APOAPSIS":"548.655","SEMIMAJOR_AXIS":"6925.349","MEAN_ELEMENT_THEORY":"SGP4","FILE":"3729873","ARG_OF_PERICENTER":"43.7152","TLE_LINE1":"1 47177U 20088BH  23002.70474085  .00001638  00000-0  12883-3 0  9999","OBJECT_NAME":"STARLINK-1907","PERIOD":"95.592","DECAY_DATE":null,"NORAD_CAT_ID":"47177","CLASSIFICATION_TYPE":"U","MEAN_MOTION":"15.06399788","EPOCH":"2023-01-02T16:54:49.609440","CENTER_NAME":"EARTH","MEAN_ANOMALY":"316.4001","OBJECT_ID":"2020-088BH","INCLINATION":"53.0540","EPHEMERIS_TYPE":"0","OBJECT_TYPE":"PAYLOAD","PERIAPSIS":"545.774","COUNTRY_CODE":"US","GP_ID":"222062313","SITE":"AFETR","LAUNCH_DATE":"2020-11-25","ELEMENT_SET_NO":"999","ECCENTRICITY":"0.00020800","MEAN_MOTION_DOT":"0.00001638","TLE_LINE2":"2 47177  53.0540 107.9829 0002080  43.7152 316.4001 15.06399788116844","BSTAR":"0.00012883000000","MEAN_MOTION_DDOT":"0.0000000000000","REV_AT_EPOCH":"11684","RA_OF_ASC_NODE":"107.9829","RCS_SIZE":"LARGE","TIME_SYSTEM":"UTC"},{"ELEMENT_SET_NO":"999","LAUNCH_DATE":"2020-11-25","SITE":"AFETR","GP_ID":"222062563","COUNTRY_CODE":"US","PERIAPSIS":"546.085","OBJECT_TYPE":"PAYLOAD","EPHEMERIS_TYPE":"0","INCLINATION":"53.0541","TIME_SYSTEM":"UTC","RCS_SIZE":"LARGE","RA_OF_ASC_NODE":"118.0689","MEAN_MOTION_DDOT":"0.0000000000000","REV_AT_EPOCH":"11669","BSTAR":"0.00001547400000","TLE_LINE2":"2 47178  53.0541 118.0689 0001639  61.2548 298.8605 15.06397838116696","MEAN_MOTION_DOT":"-0.00000051","ECCENTRICITY":"0.00016390","TLE_LINE1":"1 47178U 20088BJ  23002.68539128 -.00000051  00000-0  15474-4 0  9996","ARG_OF_PERICENTER":"61.2548","MEAN_ELEMENT_THEORY":"SGP4","FILE":"3729873","APOAPSIS":"548.355","SEMIMAJOR_AXIS":"6925.355","REF_FRAME":"TEME","MEAN_ANOMALY":"298.8605","OBJECT_ID":"2020-088BJ","CENTER_NAME":"EARTH","EPOCH":"2023-01-02T16:26:57.806592","MEAN_MOTION":"15.06397838","CLASSIFICATION_TYPE":"U","DECAY_DATE":null,"NORAD_CAT_ID":"47178","PERIOD":"95.592","OBJECT_NAME":"STARLINK-1912"}];
